HULIANWANG DIGUI-76     
1 65308U 25187D   26197.25704936 -.00000101  00000+0  50290-4 0  9998
2 65308  50.0010 101.7361 0000084   7.0193 353.0680 13.29323724 43560
HULIANWANG DIGUI-77     
1 65309U 25187E   26197.24859244 -.00000099  00000+0  54792-4 0  9998
2 65309  50.0045 101.7803 0000111 202.4397 157.6470 13.29323670 43563
HULIANWANG DIGUI-78     
1 65310U 25187F   26197.28211901 -.00000107  00000+0  37008-4 0  9997
2 65310  50.0110 101.4641 0000096 319.8357  40.2508 13.29322753 43577
HULIANWANG DIGUI-79     
1 65311U 25187G   26197.26533469 -.00000102  00000+0  47361-4 0  9990
2 65311  50.0040 101.8544 0000159 317.9104  42.1755 13.29319503 43568
HULIANWANG DIGUI-80     
1 65312U 25187H   26197.24025733 -.00000095  00000+0  63189-4 0  9996
2 65312  50.0030 101.7008 0000116 205.9564 154.1302 13.29322843 43564
HULIANWANG DIGUI-81     
1 65313U 25187J   26197.29880925 -.00000105  00000+0  41399-4 0  9995
2 65313  50.0070 101.4479 0000114 312.7989  47.2874 13.29319678 43584
HULIANWANG DIGUI-82     
1 65817U 25220A   26197.25039485  .00000026  00000+0  27489-4 0  9990
2 65817  86.4951  34.0423 0002164 100.3635 259.7743 13.24409592 38769
HULIANWANG DIGUI-83     
1 65818U 25220B   26197.24290566  .00000014  00000+0 -70591-6 0  9991
2 65818  86.4973  34.1041 0002188  99.5848 260.5534 13.24409887 38767
HULIANWANG DIGUI-84     
1 65819U 25220C   26197.08421699  .00000009  00000+0 -12389-4 0  9990
2 65819  86.4911  33.9684 0002132 100.3171 259.8203 13.24409719 38745
HULIANWANG DIGUI-85     
1 65820U 25220D   26197.22775656 -.00000005  00000+0 -45251-4 0  9994
2 65820  86.4972  34.0919 0002107 101.9048 258.2322 13.24408668 38768
HULIANWANG DIGUI-86     
1 65821U 25220E   26197.06924636  .00000010  00000+0 -11631-4 0  9991
2 65821  86.4951  34.0770 0002061  85.1916 274.9453 13.24411532 38749
HULIANWANG DIGUI-87     
1 65995U 25231A   26197.03401716 -.00000095  00000+0  62356-4 0  9994
2 65995  50.0007  72.3719 0000520 353.8778   6.2088 13.29328146 36726
HULIANWANG DIGUI-88     
1 65996U 25231B   26197.11757510 -.00000101  00000+0  49632-4 0  9990
2 65996  49.9995  72.1189 0000502 338.2135  21.8715 13.29323745 36734
HULIANWANG DIGUI-89     
1 65997U 25231C   26197.02564483 -.00000095  00000+0  63511-4 0  9990
2 65997  49.9968  72.2539 0000567 344.1791  15.9063 13.29327950 36721
HULIANWANG DIGUI-90     
1 65998U 25231D   26197.01736151 -.00000094  00000+0  64223-4 0  9993
2 65998  49.9999  72.2733 0000547 341.0867  18.9985 13.29326368 36728
HULIANWANG DIGUI-91     
1 65999U 25231E   26197.00900376 -.00000091  00000+0  71919-4 0  9992
2 65999  50.0018  72.2724 0000518 340.6024  19.4829 13.29327064 36729
