{"fetched_at":"2026-07-16T17:46:34.847Z","source":"https://celestrak.org/NORAD/elements/gp.php?NAME=HULIANWANG&FORMAT=JSON","constellation":"guowang","records":[{"OBJECT_NAME":"HULIANWANG DIGUI-76","OBJECT_ID":"2025-187D","EPOCH":"2026-07-16T06:10:09.064704","CLASSIFICATION_TYPE":"U","MEAN_MOTION":13.29323724,"ECCENTRICITY":0.00000843,"INCLINATION":50.001,"RA_OF_ASC_NODE":101.7361,"ARG_OF_PERICENTER":7.0193,"MEAN_ANOMALY":353.068,"EPHEMERIS_TYPE":0,"NORAD_CAT_ID":65308,"ELEMENT_SET_NO":999,"REV_AT_EPOCH":4356,"BSTAR":0.000050290492,"MEAN_MOTION_DOT":-0.00000101,"MEAN_MOTION_DDOT":0},{"OBJECT_NAME":"HULIANWANG DIGUI-77","OBJECT_ID":"2025-187E","EPOCH":"2026-07-16T05:57:58.386816","CLASSIFICATION_TYPE":"U","MEAN_MOTION":13.2932367,"ECCENTRICITY":0.0000111,"INCLINATION":50.0045,"RA_OF_ASC_NODE":101.7803,"ARG_OF_PERICENTER":202.4397,"MEAN_ANOMALY":157.647,"EPHEMERIS_TYPE":0,"NORAD_CAT_ID":65309,"ELEMENT_SET_NO":999,"REV_AT_EPOCH":4356,"BSTAR":0.000054792332,"MEAN_MOTION_DOT":-9.9e-7,"MEAN_MOTION_DDOT":0},{"OBJECT_NAME":"HULIANWANG DIGUI-78","OBJECT_ID":"2025-187F","EPOCH":"2026-07-16T06:46:15.082464","CLASSIFICATION_TYPE":"U","MEAN_MOTION":13.29322753,"ECCENTRICITY":0.00000964,"INCLINATION":50.011,"RA_OF_ASC_NODE":101.4641,"ARG_OF_PERICENTER":319.8357,"MEAN_ANOMALY":40.2508,"EPHEMERIS_TYPE":0,"NORAD_CAT_ID":65310,"ELEMENT_SET_NO":999,"REV_AT_EPOCH":4357,"BSTAR":0.000037008487,"MEAN_MOTION_DOT":-0.00000107,"MEAN_MOTION_DDOT":0},{"OBJECT_NAME":"HULIANWANG DIGUI-79","OBJECT_ID":"2025-187G","EPOCH":"2026-07-16T06:22:04.917216","CLASSIFICATION_TYPE":"U","MEAN_MOTION":13.29319503,"ECCENTRICITY":0.00001598,"INCLINATION":50.004,"RA_OF_ASC_NODE":101.8544,"ARG_OF_PERICENTER":317.9104,"MEAN_ANOMALY":42.1755,"EPHEMERIS_TYPE":0,"NORAD_CAT_ID":65311,"ELEMENT_SET_NO":999,"REV_AT_EPOCH":4356,"BSTAR":0.000047360718,"MEAN_MOTION_DOT":-0.00000102,"MEAN_MOTION_DDOT":0},{"OBJECT_NAME":"HULIANWANG DIGUI-80","OBJECT_ID":"2025-187H","EPOCH":"2026-07-16T05:45:58.233312","CLASSIFICATION_TYPE":"U","MEAN_MOTION":13.29322843,"ECCENTRICITY":0.00001161,"INCLINATION":50.003,"RA_OF_ASC_NODE":101.7008,"ARG_OF_PERICENTER":205.9564,"MEAN_ANOMALY":154.1302,"EPHEMERIS_TYPE":0,"NORAD_CAT_ID":65312,"ELEMENT_SET_NO":999,"REV_AT_EPOCH":4356,"BSTAR":0.000063189193,"MEAN_MOTION_DOT":-9.5e-7,"MEAN_MOTION_DDOT":0},{"OBJECT_NAME":"HULIANWANG DIGUI-81","OBJECT_ID":"2025-187J","EPOCH":"2026-07-16T07:10:17.119200","CLASSIFICATION_TYPE":"U","MEAN_MOTION":13.29319678,"ECCENTRICITY":0.00001146,"INCLINATION":50.007,"RA_OF_ASC_NODE":101.4479,"ARG_OF_PERICENTER":312.7989,"MEAN_ANOMALY":47.2874,"EPHEMERIS_TYPE":0,"NORAD_CAT_ID":65313,"ELEMENT_SET_NO":999,"REV_AT_EPOCH":4358,"BSTAR":0.000041398582,"MEAN_MOTION_DOT":-0.00000105,"MEAN_MOTION_DDOT":0},{"OBJECT_NAME":"HULIANWANG DIGUI-82","OBJECT_ID":"2025-220A","EPOCH":"2026-07-16T06:00:34.115040","CLASSIFICATION_TYPE":"U","MEAN_MOTION":13.24409592,"ECCENTRICITY":0.00021644,"INCLINATION":86.4951,"RA_OF_ASC_NODE":34.0423,"ARG_OF_PERICENTER":100.3635,"MEAN_ANOMALY":259.7743,"EPHEMERIS_TYPE":0,"NORAD_CAT_ID":65817,"ELEMENT_SET_NO":999,"REV_AT_EPOCH":3876,"BSTAR":0.000027489327,"MEAN_MOTION_DOT":2.6e-7,"MEAN_MOTION_DDOT":0},{"OBJECT_NAME":"HULIANWANG DIGUI-83","OBJECT_ID":"2025-220B","EPOCH":"2026-07-16T05:49:47.049024","CLASSIFICATION_TYPE":"U","MEAN_MOTION":13.24409887,"ECCENTRICITY":0.0002188,"INCLINATION":86.4973,"RA_OF_ASC_NODE":34.1041,"ARG_OF_PERICENTER":99.5848,"MEAN_ANOMALY":260.5534,"EPHEMERIS_TYPE":0,"NORAD_CAT_ID":65818,"ELEMENT_SET_NO":999,"REV_AT_EPOCH":3876,"BSTAR":-7.05914e-7,"MEAN_MOTION_DOT":1.4e-7,"MEAN_MOTION_DDOT":0},{"OBJECT_NAME":"HULIANWANG DIGUI-84","OBJECT_ID":"2025-220C","EPOCH":"2026-07-16T02:01:16.347936","CLASSIFICATION_TYPE":"U","MEAN_MOTION":13.24409719,"ECCENTRICITY":0.00021329,"INCLINATION":86.4911,"RA_OF_ASC_NODE":33.9684,"ARG_OF_PERICENTER":100.3171,"MEAN_ANOMALY":259.8203,"EPHEMERIS_TYPE":0,"NORAD_CAT_ID":65819,"ELEMENT_SET_NO":999,"REV_AT_EPOCH":3874,"BSTAR":-0.0000123892,"MEAN_MOTION_DOT":9e-8,"MEAN_MOTION_DDOT":0},{"OBJECT_NAME":"HULIANWANG DIGUI-85","OBJECT_ID":"2025-220D","EPOCH":"2026-07-16T05:27:58.166784","CLASSIFICATION_TYPE":"U","MEAN_MOTION":13.24408668,"ECCENTRICITY":0.00021076,"INCLINATION":86.4972,"RA_OF_ASC_NODE":34.0919,"ARG_OF_PERICENTER":101.9048,"MEAN_ANOMALY":258.2322,"EPHEMERIS_TYPE":0,"NORAD_CAT_ID":65820,"ELEMENT_SET_NO":999,"REV_AT_EPOCH":3876,"BSTAR":-0.000045250546,"MEAN_MOTION_DOT":-5e-8,"MEAN_MOTION_DDOT":0},{"OBJECT_NAME":"HULIANWANG DIGUI-86","OBJECT_ID":"2025-220E","EPOCH":"2026-07-16T01:39:42.885504","CLASSIFICATION_TYPE":"U","MEAN_MOTION":13.24411532,"ECCENTRICITY":0.00020612,"INCLINATION":86.4951,"RA_OF_ASC_NODE":34.077,"ARG_OF_PERICENTER":85.1916,"MEAN_ANOMALY":274.9453,"EPHEMERIS_TYPE":0,"NORAD_CAT_ID":65821,"ELEMENT_SET_NO":999,"REV_AT_EPOCH":3874,"BSTAR":-0.000011630742,"MEAN_MOTION_DOT":1e-7,"MEAN_MOTION_DDOT":0},{"OBJECT_NAME":"HULIANWANG DIGUI-87","OBJECT_ID":"2025-231A","EPOCH":"2026-07-16T00:48:59.082624","CLASSIFICATION_TYPE":"U","MEAN_MOTION":13.29328146,"ECCENTRICITY":0.00005204,"INCLINATION":50.0007,"RA_OF_ASC_NODE":72.3719,"ARG_OF_PERICENTER":353.8778,"MEAN_ANOMALY":6.2088,"EPHEMERIS_TYPE":0,"NORAD_CAT_ID":65995,"ELEMENT_SET_NO":999,"REV_AT_EPOCH":3672,"BSTAR":0.000062355682,"MEAN_MOTION_DOT":-9.5e-7,"MEAN_MOTION_DDOT":0},{"OBJECT_NAME":"HULIANWANG DIGUI-88","OBJECT_ID":"2025-231B","EPOCH":"2026-07-16T02:49:18.488640","CLASSIFICATION_TYPE":"U","MEAN_MOTION":13.29323745,"ECCENTRICITY":0.00005027,"INCLINATION":49.9995,"RA_OF_ASC_NODE":72.1189,"ARG_OF_PERICENTER":338.2135,"MEAN_ANOMALY":21.8715,"EPHEMERIS_TYPE":0,"NORAD_CAT_ID":65996,"ELEMENT_SET_NO":999,"REV_AT_EPOCH":3673,"BSTAR":0.000049631827,"MEAN_MOTION_DOT":-0.00000101,"MEAN_MOTION_DDOT":0},{"OBJECT_NAME":"HULIANWANG DIGUI-89","OBJECT_ID":"2025-231C","EPOCH":"2026-07-16T00:36:55.713312","CLASSIFICATION_TYPE":"U","MEAN_MOTION":13.2932795,"ECCENTRICITY":0.00005672,"INCLINATION":49.9968,"RA_OF_ASC_NODE":72.2539,"ARG_OF_PERICENTER":344.1791,"MEAN_ANOMALY":15.9063,"EPHEMERIS_TYPE":0,"NORAD_CAT_ID":65997,"ELEMENT_SET_NO":999,"REV_AT_EPOCH":3672,"BSTAR":0.000063510579,"MEAN_MOTION_DOT":-9.5e-7,"MEAN_MOTION_DDOT":0},{"OBJECT_NAME":"HULIANWANG DIGUI-90","OBJECT_ID":"2025-231D","EPOCH":"2026-07-16T00:25:00.034464","CLASSIFICATION_TYPE":"U","MEAN_MOTION":13.29326368,"ECCENTRICITY":0.00005473,"INCLINATION":49.9999,"RA_OF_ASC_NODE":72.2733,"ARG_OF_PERICENTER":341.0867,"MEAN_ANOMALY":18.9985,"EPHEMERIS_TYPE":0,"NORAD_CAT_ID":65998,"ELEMENT_SET_NO":999,"REV_AT_EPOCH":3672,"BSTAR":0.000064222964,"MEAN_MOTION_DOT":-9.4e-7,"MEAN_MOTION_DDOT":0},{"OBJECT_NAME":"HULIANWANG DIGUI-91","OBJECT_ID":"2025-231E","EPOCH":"2026-07-16T00:12:57.924864","CLASSIFICATION_TYPE":"U","MEAN_MOTION":13.29327064,"ECCENTRICITY":0.00005183,"INCLINATION":50.0018,"RA_OF_ASC_NODE":72.2724,"ARG_OF_PERICENTER":340.6024,"MEAN_ANOMALY":19.4829,"EPHEMERIS_TYPE":0,"NORAD_CAT_ID":65999,"ELEMENT_SET_NO":999,"REV_AT_EPOCH":3672,"BSTAR":0.00007191883,"MEAN_MOTION_DOT":-9.1e-7,"MEAN_MOTION_DDOT":0}]}
